O3B FM5                 
1 39188U 13031A   22320.59392355 -.00000018  00000+0  00000+0 0  9995
2 39188   0.0659  12.4423 0002763 228.1852 119.3510  5.00115381171578
O3B FM4                 
1 39189U 13031B   22320.64988849 -.00000018  00000+0  00000+0 0  9991
2 39189   0.0447 353.1028 0002715 247.5081 119.3681  5.00115909171593
O3B FM2                 
1 39190U 13031C   22319.54201118 -.00000020  00000+0  00000+0 0  9990
2 39190   0.0429 346.8287 0002716 250.8545 122.2963  5.00115169171587
O3B PFM                 
1 39191U 13031D   22320.76761512 -.00000017  00000+0  00000+0 0  9992
2 39191   0.0576   9.0402 0002723 227.6344 123.3054  5.00115792171210
O3B FM3                 
1 40079U 14038A   22320.62253262 -.00000018  00000+0  00000+0 0  9991
2 40079   0.0504 359.5284 0004635 212.6734 147.7760  5.00115400147572
O3B FM7                 
1 40080U 14038B   22320.76849040 -.00000017  00000+0  00000+0 0  9992
2 40080   0.0508 354.5235 0002494 284.3544  81.1000  5.00115586152428
O3B FM6                 
1 40081U 14038C   22320.59499050 -.00000018  00000+0  00000+0 0  9997
2 40081   0.0493 359.4879 0002788 237.1013 123.3902  5.00115346152360
O3B FM8                 
1 40082U 14038D   22320.64887683 -.00000018  00000+0  00000+0 0  9997
2 40082   0.0464 357.8129 0002675 236.4211 125.7472  5.00115729152482
O3B FM10                
1 40348U 14083A   22321.27466819 -.00000016  00000+0  00000+0 0  9994
2 40348   0.0525   9.1565 0002700 227.8052 123.0186  5.00115202144639
O3B FM11                
1 40349U 14083B   22320.68842347 -.00000017  00000+0  00000+0 0  9994
2 40349   0.0562   5.9947 0002844 244.5167 109.4639  5.00115445144440
O3B FM12                
1 40350U 14083C   22320.71564637 -.00000017  00000+0  00000+0 0  9993
2 40350   0.0553   5.8008 0002884 232.9604 121.2166  5.00115303144462
O3B FM9                 
1 40351U 14083D   22319.14331134 -.00000021  00000+0  00000+0 0  9998
2 40351   0.0574   5.8240 0002693 230.2407 123.9155  5.00116181144534
DIAMOND RED             
1 42783U 17036U   22321.03429910  .00009939  00000+0  33969-3 0  9991
2 42783  97.1827 356.6910 0010980 138.4801 221.7276 15.30415711300258
DIAMOND GREEN           
1 42785U 17036W   22320.64155456  .00010285  00000+0  35069-3 0  9999
2 42785  97.1827 356.3783 0010763 141.1989 219.0027 15.30486495300264
DIAMOND BLUE            
1 42786U 17036X   22321.09867504  .00009758  00000+0  33301-3 0  9994
2 42786  97.1828 356.8121 0010866 139.7694 220.4353 15.30469223300254
LEO VANTAGE 1           
1 43113U 18004C   22320.83284963  .00001927  00000+0  15773-3 0  9991
2 43113  99.2432  57.1700 0399648  93.3736 271.3248 14.54612945246384
O3B FM15                
1 43231U 18024A   22320.20870778 -.00000019  00000+0  00000+0 0  9995
2 43231   0.0502  12.1323 0003042 225.2657 122.5786  5.00116132 85533
O3B FM16                
1 43232U 18024B   22320.26211557 -.00000018  00000+0  00000+0 0  9995
2 43232   0.0486  16.6761 0003030 221.3730 121.9274  5.00115970 85462
O3B FM14                
1 43233U 18024C   22320.70160339 -.00000017  00000+0  00000+0 0  9995
2 43233   0.0475  17.9246 0002928 223.6361 118.4159  5.00115383 85497
O3B FM13                
1 43234U 18024D   22321.35480553 -.00000016  00000+0  00000+0 0  9990
2 43234   0.0600  11.3973 0003860 228.8826 119.6880  5.00115307 85762
O3B FM20                
1 44112U 19020A   22320.72829747 -.00000017  00000+0  00000+0 0  9996
2 44112   0.0519   8.8023 0003304 234.0121 117.1580  5.00115483 66117
O3B FM19                
1 44113U 19020B   22320.55525156 -.00000018  00000+0  00000+0 0  9996
2 44113   0.0750  12.5414 0002167 253.2961  94.1438  5.00115229 65968
O3B FM17                
1 44114U 19020C   22320.43580858 -.00000018  00000+0  00000+0 0  9994
2 44114   0.0323   7.8664 0003165 229.5439 122.5651  5.00115687 66056
O3B FM18                
1 44115U 19020D   22320.78208725 -.00000017  00000+0  00000+0 0  9992
2 44115   0.0523   8.8525 0002951 227.4821 123.6434  5.00115831 66197
SALSAT                  
1 46495U 20068K   22320.83400124  .00002418  00000+0  17292-3 0  9993
2 46495  97.7457 262.3520 0018038 117.5205 242.7857 15.05310740117101
